# From MPEC 2021-J28
387P/Boattini,e,8.9261,259.2719,162.7835,4.797150,0.0938057,0.73655802,98.2491,07/20.0/2022,2000,g 15.0,4.0
# From MPEC 2021-S45
388P/Gibbs,e,23.8834,37.0442,42.3078,5.241675,0.0821295,0.61844443,89.6940,07/20.0/2022,2000,g 13.0,4.0
# From MPEC 2022-K19
389P/Siding Spring,e,160.0810,218.8700,249.3766,5.632023,0.0737407,0.70433134,68.8480,07/20.0/2022,2000,g 16.0,4.0
# From MPEC 2021-S45
390P/Gibbs,e,18.5609,152.2741,232.3729,5.808033,0.0704142,0.70739340,59.8136,07/20.0/2022,2000,g 12.0,4.0
# From MPEC 2021-F20
391P/Kowalski,e,21.2713,124.7373,187.2673,4.682615,0.0972683,0.12010517,153.7253,07/20.0/2022,2000,g  8.0,4.0
# From MPEC 2021-J28
392P/LINEAR,e,4.9318,24.8857,71.8951,6.141515,0.0647576,0.68298980,54.4035,07/20.0/2022,2000,g 14.5,4.0
# From MPEC 2021-BE3
393P/Spacewatch-Hill,e,16.7878,36.3991,328.6416,4.790719,0.0939946,0.12068309,93.5430,07/20.0/2022,2000,g 11.0,4.0
# From MPEC 2020-KB7
394P/PANSTARRS,e,8.5293,98.1252,54.4888,4.330897,0.1093547,0.36745933,105.3318,07/20.0/2022,2000,g 16.0,2.4
# From MPEC 2022-M21
395P/Catalina-NEAT,e,3.2814,223.3442,90.2469,6.608419,0.0580173,0.38486962,11.6509,07/20.0/2022,2000,g 10.0,4.0
# From MPEC 2020-KB7
396P/,e,5.4365,136.6593,8.4639,6.809320,0.0554688,0.41569102,58.6472,07/20.0/2022,2000,g 12.0,4.0
# From MPEC 2021-O56
397P/Lemmon,e,10.9298,8.1948,14.4953,3.829307,0.1315297,0.40528351,100.0057,07/20.0/2022,2000,g 12.0,4.0
# From MPEC 2021-L04
398P/Boattini,e,11.0157,127.4519,320.2035,3.127069,0.1782370,0.58284729,101.6307,07/20.0/2022,2000,g 15.5,4.0
# From MPEC 2022-M88
399P/PANSTARRS,e,13.3201,207.1341,214.3323,3.791315,0.1335117,0.44715704,56.5169,07/20.0/2022,2000,g 14.0,4.0
# From MPEC 2022-ED3
400P/PANSTARRS,e,10.9303,176.3915,238.8134,3.561223,0.1466578,0.40944149,76.9602,07/20.0/2022,2000,g 15.5,2.8
# From MPEC 2022-K19
401P/McNaught,e,12.8026,359.8773,309.4084,5.775839,0.0710038,0.57978096,67.8813,07/20.0/2022,2000,g 12.5,4.0
# From MPEC 2022-HC2
402P/LINEAR,e,30.8484,123.0931,326.7340,7.020783,0.0529817,0.43910876,11.5188,07/20.0/2022,2000,g  8.0,4.0
# From MPEC 2021-J28
403P/Catalina,e,12.3219,163.8129,277.6388,5.428061,0.0779358,0.50372119,52.3399,07/20.0/2022,2000,g 12.0,4.0
# From MPEC 2022-O01
404P/Bressi,e,9.7319,260.4385,167.5081,4.774104,0.0944857,0.13346966,316.5582,07/20.0/2022,2000,g 10.0,4.0
# From MPEC 2021-L04
405P/Lemmon,e,9.3656,3.3164,112.2017,3.606835,0.1438847,0.68917244,82.4050,07/20.0/2022,2000,g 17.5,4.0
# From MPEC 2021-F20
406P/Gibbs,e,1.2133,11.4814,352.4136,3.576164,0.1457397,0.54207506,97.9564,07/20.0/2022,2000,g 17.0,4.0
# From MPEC 2021-F20
407P/PANSTARRS-Fuls,e,4.8765,80.5383,93.3372,3.472006,0.1523468,0.38176756,137.2292,07/20.0/2022,2000,g 14.0,4.0
# From MPEC 2022-L66
408P/Novichonok-Gerke,e,19.3565,189.4402,226.4350,4.745399,0.0953443,0.26928111,352.6667,07/20.0/2022,2000,g 11.0,4.0
# From MPEC 2022-ED3
409P/LONEOS-Hill,e,17.1193,143.6695,15.1120,6.041483,0.0663726,0.70968537,35.7047,07/20.0/2022,2000,g 14.0,4.0
# From MPEC 2022-M21
410P/NEAT-LINEAR,e,9.3932,139.9800,313.0934,6.638579,0.0576224,0.51092762,22.5533,07/20.0/2022,2000,g 12.5,4.0
# From MPEC 2021-J28
411P/Christensen,e,12.3801,77.6581,46.6284,5.814483,0.0702971,0.58079076,38.0795,07/20.0/2022,2000,g 13.5,4.0
# From MPEC 2021-F20
412P/WISE,e,8.9314,0.8446,155.9443,3.109872,0.1797175,0.47939959,106.3611,07/20.0/2022,2000,g 17.0,4.0
# From MPEC 2021-O56
413P/Larson,e,15.9784,39.0072,186.1483,3.712717,0.1377737,0.42333169,50.2299,07/20.0/2022,2000,g 14.0,4.0
# From MPEC 2021-BE3
414P/STEREO,e,23.3885,257.7920,210.7142,2.793721,0.2110714,0.81165035,114.1206,07/20.0/2022,2000,g 19.0,4.0
# From MPEC 2022-J42
415P/Tenagra,e,31.7922,160.2943,346.1150,4.113591,0.1181333,0.19464791,61.5029,07/20.0/2022,2000,g 12.0,4.0
# From MPEC 2021-L04
416P/Scotti,e,3.3613,355.8101,134.4529,4.011037,0.1226928,0.45429596,63.7601,07/20.0/2022,2000,g 15.5,4.0
# From MPEC 2021-W31
417P/NEOWISE,e,8.1222,111.1827,129.5184,3.348645,0.1608424,0.55575769,72.9377,07/20.0/2022,2000,g 16.5,4.0
# From MPEC 2022-O01
418P/LINEAR,e,5.7956,277.6447,307.1544,5.083618,0.0859894,0.66490304,23.6792,07/20.0/2022,2000,g 13.0,4.0
# From MPEC 2022-O08
419P/PANSTARRS,e,2.8030,40.3896,187.5265,3.520566,0.1492057,0.27752551,39.6082,07/20.0/2022,2000,g 12.5,4.0
# From MPEC 2021-S45
420P/Hill,e,14.5049,173.9510,157.0725,5.536578,0.0756557,0.49636741,4.4311,07/20.0/2022,2000,g 11.5,4.0
# From MPEC 2021-W31
421P/McNaught,e,10.0786,55.3455,259.8495,5.075852,0.0861868,0.67542331,46.5598,07/20.0/2022,2000,g 14.0,4.0
# From MPEC 2022-A21
422P/Christensen,e,39.5590,36.0256,305.1373,6.317799,0.0620662,0.50853236,11.6268,07/20.0/2022,2000,g 11.0,4.0
# From MPEC 2022-A21
423P/Lemmon,e,8.3460,33.3005,80.2847,6.167461,0.0643494,0.12122852,19.6068,07/20.0/2022,2000,g  8.0,4.0
# From MPEC 2022-CN4
424P/LaSagra,e,8.6852,51.1751,312.4892,4.414831,0.1062510,0.69129188,27.7695,07/20.0/2022,2000,g 17.0,4.0
# From MPEC 2022-GA9
425P/Kowalski,e,16.4203,210.0817,200.7683,6.333577,0.0618345,0.54365234,18.7022,07/20.0/2022,2000,g 12.0,4.0
# From MPEC 2021-Y10
426P/PANSTARRS,e,17.7714,280.5198,119.0683,3.186818,0.1732480,0.16138830,287.1044,07/20.0/2022,2000,g 13.5,4.0
# From MPEC 2022-J42
428P/Gibbs,e,8.5142,299.3390,36.8348,3.484817,0.1515075,0.51946011,65.3497,07/20.0/2022,2000,g 15.0,4.0
# From MPEC 2022-H04
429P/LINEAR-Hill,e,7.5218,322.0741,75.5473,3.551147,0.1472825,0.49134163,29.2852,07/20.0/2022,2000,g 15.5,4.0
# From MPEC 2022-L66
430P/Scotti,e,4.4751,54.6720,94.4865,3.106213,0.1800352,0.49955518,41.3725,07/20.0/2022,2000,g 16.5,4.0
# From MPEC 2022-ED3
431P/Scotti,e,22.3920,202.8451,199.8659,3.472641,0.1523051,0.47770569,23.8533,07/20.0/2022,2000,g 14.0,4.0
# From MPEC 2021-U31
432P/PANSTARRS,e,10.0694,239.1429,105.2383,3.035387,0.1863730,0.24197274,60.3214,07/20.0/2022,2000,g 17.0,4.0
# From MPEC 2022-K19
434P/Tenagra,e,6.3391,288.9683,128.0767,4.128830,0.1174799,0.27446238,31.3738,07/20.0/2022,2000,g 13.0,4.0
# From MPEC 2021-W31
435P/PANSTARRS,e,18.8821,98.5503,244.1638,3.018527,0.1879366,0.31868135,67.1910,07/20.0/2022,2000,g 17.0,4.0
# From MPEC 2022-M88
436P/Garradd,e,20.2100,87.1898,282.6025,5.929253,0.0682659,0.66981778,15.2567,07/20.0/2022,2000,g 14.5,4.0
# From MPEC 2021-Y10
437P/PANSTARRS,e,3.6894,245.8678,206.7172,4.559424,0.1012370,0.25425353,357.0187,07/20.0/2022,2000,g 13.0,4.0
# From MPEC 2021-W47
438P/Christensen,e,8.2865,260.1518,58.9694,3.847599,0.1305928,0.41564130,109.1316,07/20.0/2022,2000,g 14.5,4.0
# From MPEC 2022-C56
439P/LINEAR,e,7.1142,56.4128,342.0153,3.488238,0.1512847,0.46954912,49.6000,07/20.0/2022,2000,g 13.5,4.0
# From MPEC 2022-L66
440P/Kobayashi,e,12.3392,328.8815,183.3134,8.584155,0.0391884,0.76046741,4.3915,07/20.0/2022,2000,g 15.5,4.0
# From MPEC 2022-HC2
441P/PANSTARRS,e,2.5746,143.6166,178.7558,4.134659,0.1172316,0.19556532,225.6315,07/20.0/2022,2000,g 13.5,4.0
# From MPEC 2022-O01
442P/McNaught,e,6.0578,32.0221,310.9899,4.976863,0.0887709,0.53333091,357.3196,07/20.0/2022,2000,g 13.5,4.0
# From MPEC 2022-O08
443P/PANSTARRS-Christensen,e,19.8857,108.9461,145.1055,4.128533,0.1174926,0.28396374,350.3494,07/20.0/2022,2000,g 13.5,4.0
# From MPC107687
1I/`Oumuamua,h,09/09.4886/2017,122.6778,24.5997,241.6845,1.199252,0.255240,2000,23.0,2.0
# From MPEC 2020-K19
2I/Borisov,h,12/08.5549/2019,44.0527,308.1480,209.1251,3.356636,2.006548,2000,11.0,4.0
